[{"OBJECT_NAME":"HYPERFIELD-1A","OBJECT_ID":"2024-149CY","EPOCH":"2026-03-09T18:21:25.814304","MEAN_MOTION":15.29681349,"ECCENTRICITY":0.00038648,"INCLINATION":97.3842,"RA_OF_ASC_NODE":149.5066,"ARG_OF_PERICENTER":313.7844,"MEAN_ANOMALY":46.3076,"EPHEMERIS_TYPE":0,"CLASSIFICATION_TYPE":"U","NORAD_CAT_ID":60562,"ELEMENT_SET_NO":999,"REV_AT_EPOCH":8683,"BSTAR":0.00030052114,"MEAN_MOTION_DOT":8.569e-5,"MEAN_MOTION_DDOT":0},{"OBJECT_NAME":"STARLINK-34199","OBJECT_ID":"2025-157W","EPOCH":"2026-03-09T22:17:48.687936","MEAN_MOTION":15.30212146,"ECCENTRICITY":0.00011143,"INCLINATION":53.1589,"RA_OF_ASC_NODE":344.3271,"ARG_OF_PERICENTER":70.3805,"MEAN_ANOMALY":289.7316,"EPHEMERIS_TYPE":0,"CLASSIFICATION_TYPE":"U","NORAD_CAT_ID":64924,"ELEMENT_SET_NO":999,"REV_AT_EPOCH":3611,"BSTAR":0.0010189799,"MEAN_MOTION_DOT":0.00029953,"MEAN_MOTION_DDOT":0}]
